[{"OBJECT_NAME":"STARLINK-1320","OBJECT_ID":"2020-025AT","EPOCH":"2026-03-09T22:25:05.757888","MEAN_MOTION":15.68740025,"ECCENTRICITY":0.00073169,"INCLINATION":53.0503,"RA_OF_ASC_NODE":344.5237,"ARG_OF_PERICENTER":58.0358,"MEAN_ANOMALY":302.1368,"EPHEMERIS_TYPE":0,"CLASSIFICATION_TYPE":"U","NORAD_CAT_ID":45572,"ELEMENT_SET_NO":999,"REV_AT_EPOCH":32684,"BSTAR":0.00068865274,"MEAN_MOTION_DOT":0.00080462,"MEAN_MOTION_DDOT":0},{"OBJECT_NAME":"STARLINK-11093 [DTC]","OBJECT_ID":"2024-065C","EPOCH":"2026-03-09T10:34:17.912640","MEAN_MOTION":15.69712499,"ECCENTRICITY":0.00011047,"INCLINATION":53.159,"RA_OF_ASC_NODE":95.139,"ARG_OF_PERICENTER":56.3687,"MEAN_ANOMALY":303.7436,"EPHEMERIS_TYPE":0,"CLASSIFICATION_TYPE":"U","NORAD_CAT_ID":59423,"ELEMENT_SET_NO":999,"REV_AT_EPOCH":11148,"BSTAR":-6.48753e-7,"MEAN_MOTION_DOT":-6.67e-6,"MEAN_MOTION_DDOT":0}]
